PRSS-1                  
1 43530U 18056B   25315.27650109  .00001947  00000+0  25511-3 0  9998
2 43530  97.8106  23.9310 0001435  81.0823 279.0552 14.81470882396169
HAIYANG-1C              
1 43609U 18068A   25315.29072372  .00000310  00000+0  12617-3 0  9996
2 43609  98.5468  25.4770 0010924  28.1500 332.0273 14.34176947375855
SSTL S1-4               
1 43618U 18071A   25315.93757782  .00002342  00000+0  21258-3 0  9994
2 43618  97.5298 191.1334 0002692 121.1947 238.9539 14.96202527390458
HAIYANG-2B              
1 43655U 18081A   25315.32919819  .00000014  00000+0  56644-4 0  9992
2 43655  99.3338 322.3510 0001787 118.8176 241.3156 13.79304643354892
CZ-4B R/B               
1 43656U 18081B   25315.29751784  .00000272  00000+0  98003-4 0  9995
2 43656  99.3753 210.7814 0205122 174.0571 186.3116 14.31739093368128
CFOSAT                  
1 43662U 18083A   25315.27021728  .00007380  00000+0  38232-3 0  9994
2 43662  97.3637 321.2165 0001757 112.9675 247.1744 15.16473713389411
TEN-KOH                 
1 43677U 18084G   25315.06040466  .00004832  00000+0  37840-3 0  9991
2 43677  98.0684 133.4190 0009279 115.7543 244.4639 15.01485977383416
DIWATA-2B               
1 43678U 18084H   25315.28522394  .00003525  00000+0  29443-3 0  9999
2 43678  98.1073 137.4851 0007753 123.5911 236.6052 14.99208569383552
STARS-AO                
1 43679U 18084J   25314.99352288  .00009546  00000+0  53602-3 0  9993
2 43679  98.0666 150.7336 0002281 157.6732 202.4597 15.13561415384427
AUTCUBE 2               
1 43681U 18084K   25315.02178364  .00007091  00000+0  46661-3 0  9992
2 43681  98.0807 144.7334 0010456  63.3428 296.8869 15.07850690384020
METOP-C                 
1 43689U 18087A   25315.28793070  .00000253  00000+0  13564-3 0  9997
2 43689  98.6972  13.5322 0002186  90.7104 269.4324 14.21493642363870
ES'HAIL 2               
1 43700U 18090A   25315.17630437  .00000140  00000+0  00000+0 0  9992
2 43700   0.0138 269.7673 0002669   1.5657 228.5321  1.00272057 25492
MOHAMMED VI-B           
1 43717U 18095A   25315.31880819  .00001616  00000+0  23590-3 0  9994
2 43717  97.9603  25.7563 0001364 100.7312 259.4052 14.77106073376025
HYSIS                   
1 43719U 18096A   25314.77067255 -.00000547  00000+0 -67689-4 0  9999
2 43719  98.0139  17.8981 0001709  94.4323 265.7084 14.78598783375144
COSMOS 2530             
1 43751U 18097A   25315.30845146  .00000013  00000+0  23259-4 0  9990
2 43751  82.5178 357.5344 0020452 148.4740 211.7570 12.42872224315225
COSMOS 2531             
1 43752U 18097B   25315.33588839  .00000029  00000+0  14017-3 0  9995
2 43752  82.5224 358.5013 0017084 165.8570 194.2991 12.42867285315248
COSMOS 2532             
1 43753U 18097C   25315.28239819  .00000024  00000+0  10355-3 0  9997
2 43753  82.5168 357.4190 0018567 168.0956 192.0567 12.42865413315202
MINXSS-2                
1 43758U 18099A   25315.17150015  .00031525  00000+0  10089-2 0  9995
2 43758  97.4838  22.1532 0009470 335.4922  24.5869 15.32305204380584
SIRION PATHFINDER-2     
1 43759U 18099B   25315.11314637  .00007425  00000+0  43838-3 0  9993
2 43759  97.4583   4.3392 0008692 343.2706  16.8236 15.11775688379641
AISTECHSAT 2            
1 43768U 18099L   25315.13307570  .00008686  00000+0  50321-3 0  9998
2 43768  97.4633   2.9564 0004495 353.8264   6.2911 15.12430862379281
FOX-1CLIFF (AO-95)      
1 43770U 18099N   25315.15613193  .00015351  00000+0  69772-3 0  9991
2 43770  97.4723  11.6901 0010665  41.1538 319.0500 15.20791957380019
2018-099Q               
1 43772U 18099Q   25315.12739875  .00048303  00000+0  11721-2 0  9999
2 43772  97.4528  21.9478 0002715 255.8632 104.2313 15.40882132380703
RANGE-A                 
1 43773U 18099R   25315.08787384  .00007424  00000+0  44957-3 0  9990
2 43773  97.4292 359.0072 0011493  28.0582 332.1265 15.10831787379538
HIBER-2                 
1 43774U 18099S   25315.17343691  .00118479  00000+0  16146-2 0  9991
2 43774  97.4683  28.8950 0003926 278.3774  81.7036 15.57113034381056
VESTA-1                 
1 43781U 18099Z   25315.13443898  .00160019  00000+0  18860-2 0  9997
2 43781  97.4383  22.1059 0002121 286.0231  74.0793 15.60837317380941
SNUSAT-2                
1 43782U 18099AA  25315.14698652  .00011967  00000+0  60030-3 0  9993
2 43782  97.4404   7.1055 0010712 345.7962  14.2968 15.17425177379918
SNUGLITE                
1 43784U 18099AC  25315.08535005  .00016383  00000+0  73741-3 0  9990
2 43784  97.4217   6.9858 0002837   5.6421 354.4846 15.21159423380099
ITASAT                  
1 43786U 18099AE  25315.14181663  .00010341  00000+0  55010-3 0  9993
2 43786  97.4376   6.1201 0014474  37.6301 322.5941 15.15353471379848
EAGLET-I                
1 43790U 18099AJ  25315.11401291  .00006246  00000+0  38080-3 0  9994
2 43790  97.4565   5.4666 0012154  25.8199 334.3635 15.10642231379387
ESEO                    
1 43792U 18099AL  25315.06667258  .00003320  00000+0  24875-3 0  9994
2 43792  97.4289 356.5378 0012208   2.4571 357.6713 15.03298902379027
THEA                    
1 43796U 18099AQ  25315.15136970  .00021312  00000+0  82236-3 0  9996
2 43796  97.4753  18.7161 0008335 346.1251  13.9757 15.26282595379333
ASTROCAST 0.1           
1 43798U 18099AS  25315.13803727  .00032151  00000+0  94318-3 0  9994
2 43798  97.4662  23.9203 0005520 286.5327  73.5310 15.35095153380828
JY1SAT (JO-97)          
1 43803U 18099AX  25315.21229605  .00022590  00000+0  89517-3 0  9998
2 43803  97.4462  13.1561 0005927 333.2214  26.8717 15.25398158380302
SUOMI-100               
1 43804U 18099AY  25315.11304692  .00017442  00000+0  76172-3 0  9991
2 43804  97.4532  11.8390 0010578 335.2078  24.8648 15.22132732380171
AL-FARABI 2             
1 43805U 18099AZ  25315.14504924  .00059658  00000+0  12498-2 0  9990
2 43805  97.4347  21.5153 0004375 282.2752  77.8006 15.45215868380936
CENTAURI-1              
1 43809U 18099BD  25315.11649332  .00008284  00000+0  46714-3 0  9992
2 43809  97.4559   6.5343 0015213  10.2214 349.9324 15.13329476379484
GLOBAL-2                
1 43812U 18099BG  25315.08671104  .00004546  00000+0  30784-3 0  9991
2 43812  97.3859 355.5348 0006218 169.3055 190.8307 15.06950885379048
SEAHAWK-1               
1 43820U 18099BQ  25315.13504917  .00012413  00000+0  61065-3 0  9991
2 43820  97.4303   6.2100 0009016   3.1383 356.9906 15.18114267379393
SAUDISAT 5A             
1 43831U 18102A   25315.30299072  .00009984  00000+0  40126-3 0  9994
2 43831  97.3391  16.1055 0010375 176.0790 184.0531 15.25075999382431
SAUDISAT 5B             
1 43833U 18102C   25315.30090186  .00009298  00000+0  36979-3 0  9990
2 43833  97.3484  18.7858 0010976 179.4414 180.6838 15.25445563382544
2018-102D               
1 43834U 18102D   25315.30207118  .00043986  00000+0  88709-3 0  9996
2 43834  97.3659  33.1576 0007303 141.7666 218.4103 15.46386978383372
ISAT                    
1 43879U 18111D   25315.29311376  .00049455  00000+0  12885-2 0  9993
2 43879  97.5886 233.8126 0008932  31.8024 328.3758 15.38667661377407
UWE-4                   
1 43880U 18111E   25315.24383464  .00035588  00000+0  11384-2 0  9992
2 43880  97.5828 230.9500 0012307  36.5414 323.6665 15.32264827377254
D-STAR ONE (SPARROW)    
1 43881U 18111F   25315.25554557  .00056167  00000+0  13719-2 0  9997
2 43881  97.6067 237.3469 0008943  61.0552 299.1590 15.40608658377519
JILIN-1 09              
1 43943U 19005B   25315.24894885  .00008755  00000+0  43536-3 0  9990
2 43943  97.4791  47.4562 0004039 120.6191 239.5442 15.17861245376056
JILIN-1 10              
1 43946U 19005E   25315.29780973  .00010918  00000+0  47640-3 0  9994
2 43946  97.4807  49.6554 0007673 332.8989  27.1845 15.22298077376120
EGYPTSAT-A (MISRSAT-A)  
1 44047U 19008A   25315.26012103  .00001274  00000+0  20928-3 0  9995
2 44047  98.0030  18.2162 0001047 107.5737 252.5585 14.72319252361179
EMISAT                  
1 44078U 19018A   25315.23727204  .00000486  00000+0  15598-3 0  9993
2 44078  98.4978   9.8806 0019544 152.1224 208.1018 14.43661658348617
JILIN-1 GAOFEN 3A       
1 44312U 19032C   25314.92343699  .00022187  00000+0  84276-3 0  9998
2 44312  44.9726 113.0287 0006838 162.8899 197.2215 15.26482734354414
WT 1A                   
1 44315U 19032F   25315.26002707  .00073360  00000+0  12282-2 0  9997
2 44315  44.9831  38.6969 0008316 276.0302  83.9642 15.50980406355347
WT 1B                   
1 44316U 19032G   25315.06953866  .00022850  00000+0  10110-2 0  9993
2 44316  44.9749 166.6886 0010591 103.8540 256.3520 15.21302556353795
PROX-1                  
1 44339U 19036A   25314.78110695  .00019172  00000+0  22159-2 0  9994
2 44339  23.9951 126.2346 0007700  36.3709 323.7312 14.83966724340918
NPSAT1                  
1 44340U 19036B   25315.01947490  .00008918  00000+0  13658-2 0  9994
2 44340  23.9978 195.7197 0008109 270.9121  89.0445 14.71559038340284
FORMOSAT 7-3            
1 44343U 19036E   25315.00374115  .00007793  00000+0  47972-3 0  9991
2 44343  23.9986 237.7495 0000590 188.4098 171.6396 15.07391558350258
FORMOSAT 7-1            
1 44349U 19036L   25315.00077230  .00005170  00000+0  40077-3 0  9991
2 44349  23.9986  64.2265 0000472 317.6894  42.3570 14.98096190351927
FORMOSAT 7-4            
1 44350U 19036M   25314.82258619  .00005675  00000+0  44245-3 0  9995
2 44350  23.9976 127.5190 0000662 303.9406  56.1032 14.98086933351319
FORMOSAT 7-2            
1 44351U 19036N   25314.91175827  .00004909  00000+0  37930-3 0  9997
2 44351  23.9972 181.2372 0000733 311.5696  48.4742 14.98094866350843
FORMOSAT 7-6            
1 44353U 19036Q   25315.24512684  .00006113  00000+0  47851-3 0  9994
2 44353  23.9995 359.8124 0000978 330.5680  29.4766 14.98087705349121
FORMOSAT 7-5            
1 44358U 19036V   25311.42556828  .00006162  00000+0  47823-3 0  9996
2 44358  24.0000 324.3654 0001409 113.8809 246.1840 14.98428742349081
